{
  "type": "FeatureCollection",
  "features": [
    {
      "type": "Feature",
      "properties": {
        "norad_id": 41866,
        "name": "GOES 16",
        "group": "weather",
        "lat": -0.009151565174143908,
        "lon": -98.81872279334715,
        "alt_km": 35772.18499698223,
        "timestamp": "2025-12-02T19:35:50.205264+00:00",
        "meta_object_name": "GOES 16",
        "meta_object_id": "2016-071A",
        "meta_epoch": "2025-12-02T09:32:38.891040",
        "meta_mean_motion": 1.00270605,
        "meta_eccentricity": 0.0003373,
        "meta_inclination": 0.0559,
        "meta_ra_of_asc_node": 108.1075,
        "meta_arg_of_pericenter": 147.9923,
        "meta_mean_anomaly": 213.8971,
        "meta_ephemeris_type": 0,
        "meta_classification_type": "U",
        "meta_norad_cat_id": 41866,
        "meta_element_set_no": 999,
        "meta_rev_at_epoch": 3313,
        "meta_bstar": 0,
        "meta_mean_motion_dot": -7e-07,
        "meta_mean_motion_ddot": 0,
        "tle_line1": "1 41866U 16071A   25336.39767235 -.00000070  00000+0  00000+0 0  9997",
        "tle_line2": "2 41866   0.0559 108.1075 0003373 147.9923 213.8971  1.00270605 33131"
      },
      "geometry": {
        "type": "Point",
        "coordinates": [
          -98.81872279334715,
          -0.009151565174143908
        ]
      }
    },
    {
      "type": "Feature",
      "properties": {
        "norad_id": 41882,
        "name": "FENGYUN 4A",
        "group": "weather",
        "lat": 1.3361454507603496,
        "lon": 129.489700771673,
        "alt_km": 35785.63557477009,
        "timestamp": "2025-12-02T19:35:50.205278+00:00",
        "meta_object_name": "FENGYUN 4A",
        "meta_object_id": "2016-077A",
        "meta_epoch": "2025-12-02T07:31:31.000800",
        "meta_mean_motion": 1.00278848,
        "meta_eccentricity": 0.0005003,
        "meta_inclination": 1.8205,
        "meta_ra_of_asc_node": 82.4911,
        "meta_arg_of_pericenter": 141.2194,
        "meta_mean_anomaly": 84.2874,
        "meta_ephemeris_type": 0,
        "meta_classification_type": "U",
        "meta_norad_cat_id": 41882,
        "meta_element_set_no": 999,
        "meta_rev_at_epoch": 3295,
        "meta_bstar": 0,
        "meta_mean_motion_dot": -3.36e-06,
        "meta_mean_motion_ddot": 0,
        "tle_line1": "1 41882U 16077A   25336.31355325 -.00000336  00000+0  00000+0 0  9991",
        "tle_line2": "2 41882   1.8205  82.4911 0005003 141.2194  84.2874  1.00278848 32956"
      },
      "geometry": {
        "type": "Point",
        "coordinates": [
          129.489700771673,
          1.3361454507603496
        ]
      }
    },
    {
      "type": "Feature",
      "properties": {
        "norad_id": 41884,
        "name": "CYGFM05",
        "group": "weather",
        "lat": 33.00645792756861,
        "lon": -179.67259927750828,
        "alt_km": 412.9934972801775,
        "timestamp": "2025-12-02T19:35:50.205290+00:00",
        "meta_object_name": "CYGFM05",
        "meta_object_id": "2016-078A",
        "meta_epoch": "2025-12-02T11:32:39.880032",
        "meta_mean_motion": 15.47053382,
        "meta_eccentricity": 0.0009422,
        "meta_inclination": 34.9578,
        "meta_ra_of_asc_node": 114.114,
        "meta_arg_of_pericenter": 84.3374,
        "meta_mean_anomaly": 275.8422,
        "meta_ephemeris_type": 0,
        "meta_classification_type": "U",
        "meta_norad_cat_id": 41884,
        "meta_element_set_no": 999,
        "meta_rev_at_epoch": 49817,
        "meta_bstar": 0.00043635,
        "meta_mean_motion_dot": 0.00022801,
        "meta_mean_motion_ddot": 0,
        "tle_line1": "1 41884U 16078A   25336.48101713  .00022801  00000+0  43635-3 0  9997",
        "tle_line2": "2 41884  34.9578 114.1140 0009422  84.3374 275.8422 15.47053382498178"
      },
      "geometry": {
        "type": "Point",
        "coordinates": [
          -179.67259927750828,
          33.00645792756861
        ]
      }
    },
    {
      "type": "Feature",
      "properties": {
        "norad_id": 41885,
        "name": "CYGFM04",
        "group": "weather",
        "lat": -19.22037066490653,
        "lon": -63.05167229252021,
        "alt_km": 419.2978115057067,
        "timestamp": "2025-12-02T19:35:50.205301+00:00",
        "meta_object_name": "CYGFM04",
        "meta_object_id": "2016-078B",
        "meta_epoch": "2025-12-02T10:56:40.034688",
        "meta_mean_motion": 15.49676535,
        "meta_eccentricity": 0.0008456,
        "meta_inclination": 34.9338,
        "meta_ra_of_asc_node": 89.3454,
        "meta_arg_of_pericenter": 113.8373,
        "meta_mean_anomaly": 246.3236,
        "meta_ephemeris_type": 0,
        "meta_classification_type": "U",
        "meta_norad_cat_id": 41885,
        "meta_element_set_no": 999,
        "meta_rev_at_epoch": 49834,
        "meta_bstar": 0.0011812,
        "meta_mean_motion_dot": 0.00068139,
        "meta_mean_motion_ddot": 0,
        "tle_line1": "1 41885U 16078B   25336.45601892  .00068139  00000+0  11812-2 0  9993",
        "tle_line2": "2 41885  34.9338  89.3454 0008456 113.8373 246.3236 15.49676535498345"
      },
      "geometry": {
        "type": "Point",
        "coordinates": [
          -63.05167229252021,
          -19.22037066490653
        ]
      }
    },
    {
      "type": "Feature",
      "properties": {
        "norad_id": 41886,
        "name": "CYGFM02",
        "group": "weather",
        "lat": 0.30377405341010755,
        "lon": -94.99928544744894,
        "alt_km": 409.2684733952865,
        "timestamp": "2025-12-02T19:35:50.205312+00:00",
        "meta_object_name": "CYGFM02",
        "meta_object_id": "2016-078C",
        "meta_epoch": "2025-12-02T11:06:18.343584",
        "meta_mean_motion": 15.51041432,
        "meta_eccentricity": 0.0010174,
        "meta_inclination": 34.9427,
        "meta_ra_of_asc_node": 87.7595,
        "meta_arg_of_pericenter": 113.6681,
        "meta_mean_anomaly": 246.511,
        "meta_ephemeris_type": 0,
        "meta_classification_type": "U",
        "meta_norad_cat_id": 41886,
        "meta_element_set_no": 999,
        "meta_rev_at_epoch": 49847,
        "meta_bstar": 0.00046713,
        "meta_mean_motion_dot": 0.00028135,
        "meta_mean_motion_ddot": 0,
        "tle_line1": "1 41886U 16078C   25336.46271231  .00028135  00000+0  46713-3 0  9996",
        "tle_line2": "2 41886  34.9427  87.7595 0010174 113.6681 246.5110 15.51041432498475"
      },
      "geometry": {
        "type": "Point",
        "coordinates": [
          -94.99928544744894,
          0.30377405341010755
        ]
      }
    },
    {
      "type": "Feature",
      "properties": {
        "norad_id": 41887,
        "name": "CYGFM01",
        "group": "weather",
        "lat": 34.71778359194909,
        "lon": -148.6085086962838,
        "alt_km": 411.3477250607739,
        "timestamp": "2025-12-02T19:35:50.205323+00:00",
        "meta_object_name": "CYGFM01",
        "meta_object_id": "2016-078D",
        "meta_epoch": "2025-12-02T11:26:43.766016",
        "meta_mean_motion": 15.4761582,
        "meta_eccentricity": 0.0009082,
        "meta_inclination": 34.9407,
        "meta_ra_of_asc_node": 116.5624,
        "meta_arg_of_pericenter": 75.2425,
        "meta_mean_anomaly": 284.9302,
        "meta_ephemeris_type": 0,
        "meta_classification_type": "U",
        "meta_norad_cat_id": 41887,
        "meta_element_set_no": 999,
        "meta_rev_at_epoch": 49811,
        "meta_bstar": 0.00044968,
        "meta_mean_motion_dot": 0.00023967,
        "meta_mean_motion_ddot": 0,
        "tle_line1": "1 41887U 16078D   25336.47689544  .00023967  00000+0  44968-3 0  9996",
        "tle_line2": "2 41887  34.9407 116.5624 0009082  75.2425 284.9302 15.47615820498116"
      },
      "geometry": {
        "type": "Point",
        "coordinates": [
          -148.6085086962838,
          34.71778359194909
        ]
      }
    },
    {
      "type": "Feature",
      "properties": {
        "norad_id": 41888,
        "name": "CYGFM08",
        "group": "weather",
        "lat": 34.129396391268,
        "lon": -158.64696606354593,
        "alt_km": 406.6783430424275,
        "timestamp": "2025-12-02T19:35:50.205334+00:00",
        "meta_object_name": "CYGFM08",
        "meta_object_id": "2016-078E",
        "meta_epoch": "2025-12-02T11:25:37.884288",
        "meta_mean_motion": 15.4878828,
        "meta_eccentricity": 0.0010648,
        "meta_inclination": 34.9443,
        "meta_ra_of_asc_node": 99.6762,
        "meta_arg_of_pericenter": 101.7862,
        "meta_mean_anomaly": 258.4054,
        "meta_ephemeris_type": 0,
        "meta_classification_type": "U",
        "meta_norad_cat_id": 41888,
        "meta_element_set_no": 999,
        "meta_rev_at_epoch": 49834,
        "meta_bstar": 0.00045423,
        "meta_mean_motion_dot": 0.00025246,
        "meta_mean_motion_ddot": 0,
        "tle_line1": "1 41888U 16078E   25336.47613292  .00025246  00000+0  45423-3 0  9993",
        "tle_line2": "2 41888  34.9443  99.6762 0010648 101.7862 258.4054 15.48788280498348"
      },
      "geometry": {
        "type": "Point",
        "coordinates": [
          -158.64696606354593,
          34.129396391268
        ]
      }
    }
  ]
}